[{"OBJECT_NAME":"STARLINK-4176","OBJECT_ID":"2022-086AZ","EPOCH":"2026-03-09T15:04:38.710848","MEAN_MOTION":15.08841695,"ECCENTRICITY":0.0001319,"INCLINATION":53.218,"RA_OF_ASC_NODE":179.5398,"ARG_OF_PERICENTER":90.207,"MEAN_ANOMALY":269.9073,"EPHEMERIS_TYPE":0,"CLASSIFICATION_TYPE":"U","NORAD_CAT_ID":53289,"ELEMENT_SET_NO":999,"REV_AT_EPOCH":20124,"BSTAR":6.6347e-5,"MEAN_MOTION_DOT":7.68e-6,"MEAN_MOTION_DDOT":0},{"OBJECT_NAME":"AAC-HSI-SAT1","OBJECT_ID":"2023-054AZ","EPOCH":"2026-03-09T21:58:39.446112","MEAN_MOTION":15.121108,"ECCENTRICITY":0.00115868,"INCLINATION":97.3836,"RA_OF_ASC_NODE":308.6521,"ARG_OF_PERICENTER":105.3166,"MEAN_ANOMALY":254.9346,"EPHEMERIS_TYPE":0,"CLASSIFICATION_TYPE":"U","NORAD_CAT_ID":56225,"ELEMENT_SET_NO":999,"REV_AT_EPOCH":16036,"BSTAR":0.00016323049,"MEAN_MOTION_DOT":2.752e-5,"MEAN_MOTION_DDOT":0}]
